CCSDS_OMM_VERS = 2.0
CREATION_DATE  = 
ORIGINATOR     = 

OBJECT_NAME    = SL-16 R/B
OBJECT_ID      = 1998-043G
CENTER_NAME    = EARTH
REF_FRAME      = TEME
TIME_SYSTEM    = UTC
MEAN_ELEMENT_THEORY = SGP/SGP4

EPOCH          = 2026-02-03T11:48:08.904672
MEAN_MOTION    = 14.26041088
ECCENTRICITY   = .001085
INCLINATION    = 98.8199
RA_OF_ASC_NODE = 347.6253
ARG_OF_PERICENTER = 111.2668
MEAN_ANOMALY   = 248.9671

EPHEMERIS_TYPE = 0
CLASSIFICATION_TYPE = U
NORAD_CAT_ID   = 25400
ELEMENT_SET_NO = 999
REV_AT_EPOCH   = 43411
BSTAR          = .48852E-4
MEAN_MOTION_DOT = .72E-6
MEAN_MOTION_DDOT = 0

CCSDS_OMM_VERS = 2.0
CREATION_DATE  = 
ORIGINATOR     = 

OBJECT_NAME    = SL-16 R/B
OBJECT_ID      = 1998-045B
CENTER_NAME    = EARTH
REF_FRAME      = TEME
TIME_SYSTEM    = UTC
MEAN_ELEMENT_THEORY = SGP/SGP4

EPOCH          = 2026-02-03T00:48:19.601280
MEAN_MOTION    = 14.16185928
ECCENTRICITY   = .00051433
INCLINATION    = 71.0092
RA_OF_ASC_NODE = 254.4555
ARG_OF_PERICENTER = 73.1572
MEAN_ANOMALY   = 287.0115

EPHEMERIS_TYPE = 0
CLASSIFICATION_TYPE = U
NORAD_CAT_ID   = 25407
ELEMENT_SET_NO = 999
REV_AT_EPOCH   = 42219
BSTAR          = -.90243E-4
MEAN_MOTION_DOT = -.226E-5
MEAN_MOTION_DDOT = 0

CCSDS_OMM_VERS = 2.0
CREATION_DATE  = 
ORIGINATOR     = 

OBJECT_NAME    = ISS (ZARYA)
OBJECT_ID      = 1998-067A
CENTER_NAME    = EARTH
REF_FRAME      = TEME
TIME_SYSTEM    = UTC
MEAN_ELEMENT_THEORY = SGP/SGP4

EPOCH          = 2026-02-03T01:11:24.500832
MEAN_MOTION    = 15.48354885
ECCENTRICITY   = .0011047
INCLINATION    = 51.6308
RA_OF_ASC_NODE = 243.5963
ARG_OF_PERICENTER = 59.0686
MEAN_ANOMALY   = 301.1387

EPHEMERIS_TYPE = 0
CLASSIFICATION_TYPE = U
NORAD_CAT_ID   = 25544
ELEMENT_SET_NO = 999
REV_AT_EPOCH   = 55096
BSTAR          = .19716E-3
MEAN_MOTION_DOT = .10203E-3
MEAN_MOTION_DDOT = 0

CCSDS_OMM_VERS = 2.0
CREATION_DATE  = 
ORIGINATOR     = 

OBJECT_NAME    = CZ-4B R/B
OBJECT_ID      = 1999-025C
CENTER_NAME    = EARTH
REF_FRAME      = TEME
TIME_SYSTEM    = UTC
MEAN_ELEMENT_THEORY = SGP/SGP4

EPOCH          = 2026-02-03T08:51:22.504608
MEAN_MOTION    = 14.18258232
ECCENTRICITY   = .0038199
INCLINATION    = 98.6692
RA_OF_ASC_NODE = 79.4529
ARG_OF_PERICENTER = 83.9751
MEAN_ANOMALY   = 287.0325

EPHEMERIS_TYPE = 0
CLASSIFICATION_TYPE = U
NORAD_CAT_ID   = 25732
ELEMENT_SET_NO = 999
REV_AT_EPOCH   = 38330
BSTAR          = .59775E-4
MEAN_MOTION_DOT = .81E-6
MEAN_MOTION_DDOT = 0

CCSDS_OMM_VERS = 2.0
CREATION_DATE  = 
ORIGINATOR     = 

OBJECT_NAME    = OKEAN-O
OBJECT_ID      = 1999-039A
CENTER_NAME    = EARTH
REF_FRAME      = TEME
TIME_SYSTEM    = UTC
MEAN_ELEMENT_THEORY = SGP/SGP4

EPOCH          = 2026-02-03T04:17:16.980000
MEAN_MOTION    = 14.80275814
ECCENTRICITY   = .0001939
INCLINATION    = 97.9516
RA_OF_ASC_NODE = 94.4080
ARG_OF_PERICENTER = 91.1271
MEAN_ANOMALY   = 269.0163

EPHEMERIS_TYPE = 0
CLASSIFICATION_TYPE = U
NORAD_CAT_ID   = 25860
ELEMENT_SET_NO = 999
REV_AT_EPOCH   = 42928
BSTAR          = .10705E-3
MEAN_MOTION_DOT = .763E-5
MEAN_MOTION_DDOT = 0

CCSDS_OMM_VERS = 2.0
CREATION_DATE  = 
ORIGINATOR     = 

OBJECT_NAME    = SL-16 R/B
OBJECT_ID      = 1999-039B
CENTER_NAME    = EARTH
REF_FRAME      = TEME
TIME_SYSTEM    = UTC
MEAN_ELEMENT_THEORY = SGP/SGP4

EPOCH          = 2026-02-03T09:27:02.042496
MEAN_MOTION    = 14.81680856
ECCENTRICITY   = .0015062
INCLINATION    = 98.0039
RA_OF_ASC_NODE = 93.5283
ARG_OF_PERICENTER = 14.0690
MEAN_ANOMALY   = 346.0939

EPHEMERIS_TYPE = 0
CLASSIFICATION_TYPE = U
NORAD_CAT_ID   = 25861
ELEMENT_SET_NO = 999
REV_AT_EPOCH   = 43178
BSTAR          = .91839E-4
MEAN_MOTION_DOT = .67E-5
MEAN_MOTION_DDOT = 0

CCSDS_OMM_VERS = 2.0
CREATION_DATE  = 
ORIGINATOR     = 

OBJECT_NAME    = DELTA 2 R/B
OBJECT_ID      = 1999-041E
CENTER_NAME    = EARTH
REF_FRAME      = TEME
TIME_SYSTEM    = UTC
MEAN_ELEMENT_THEORY = SGP/SGP4

EPOCH          = 2026-02-03T11:03:30.572928
MEAN_MOTION    = 14.11691942
ECCENTRICITY   = .050252
INCLINATION    = 51.7645
RA_OF_ASC_NODE = 77.9663
ARG_OF_PERICENTER = 247.2989
MEAN_ANOMALY   = 107.4087

EPHEMERIS_TYPE = 0
CLASSIFICATION_TYPE = U
NORAD_CAT_ID   = 25876
ELEMENT_SET_NO = 999
REV_AT_EPOCH   = 35819
BSTAR          = .40072E-3
MEAN_MOTION_DOT = .2259E-4
MEAN_MOTION_DDOT = 0

CCSDS_OMM_VERS = 2.0
CREATION_DATE  = 
ORIGINATOR     = 

OBJECT_NAME    = HELIOS 1B
OBJECT_ID      = 1999-064A
CENTER_NAME    = EARTH
REF_FRAME      = TEME
TIME_SYSTEM    = UTC
MEAN_ELEMENT_THEORY = SGP/SGP4

EPOCH          = 2026-02-03T11:27:25.133472
MEAN_MOTION    = 14.87550753
ECCENTRICITY   = .0001814
INCLINATION    = 98.1734
RA_OF_ASC_NODE = 295.7102
ARG_OF_PERICENTER = 122.0494
MEAN_ANOMALY   = 238.0898

EPHEMERIS_TYPE = 0
CLASSIFICATION_TYPE = U
NORAD_CAT_ID   = 25977
ELEMENT_SET_NO = 999
REV_AT_EPOCH   = 68017
BSTAR          = .24264E-3
MEAN_MOTION_DOT = .2144E-4
MEAN_MOTION_DDOT = 0

CCSDS_OMM_VERS = 2.0
CREATION_DATE  = 
ORIGINATOR     = 

OBJECT_NAME    = TERRA
OBJECT_ID      = 1999-068A
CENTER_NAME    = EARTH
REF_FRAME      = TEME
TIME_SYSTEM    = UTC
MEAN_ELEMENT_THEORY = SGP/SGP4

EPOCH          = 2026-02-03T11:31:51.775104
MEAN_MOTION    = 14.60975633
ECCENTRICITY   = .0001054
INCLINATION    = 97.9665
RA_OF_ASC_NODE = 89.2094
ARG_OF_PERICENTER = 309.8318
MEAN_ANOMALY   = 158.2156

EPHEMERIS_TYPE = 0
CLASSIFICATION_TYPE = U
NORAD_CAT_ID   = 25994
ELEMENT_SET_NO = 999
REV_AT_EPOCH   = 39008
BSTAR          = .10948E-3
MEAN_MOTION_DOT = .492E-5
MEAN_MOTION_DDOT = 0

CCSDS_OMM_VERS = 2.0
CREATION_DATE  = 
ORIGINATOR     = 

OBJECT_NAME    = SL-16 R/B
OBJECT_ID      = 2000-006B
CENTER_NAME    = EARTH
REF_FRAME      = TEME
TIME_SYSTEM    = UTC
MEAN_ELEMENT_THEORY = SGP/SGP4

EPOCH          = 2026-02-03T11:07:58.051776
MEAN_MOTION    = 14.15819918
ECCENTRICITY   = .0018478
INCLINATION    = 71.0026
RA_OF_ASC_NODE = 169.7999
ARG_OF_PERICENTER = 237.9655
MEAN_ANOMALY   = 121.9673

EPHEMERIS_TYPE = 0
CLASSIFICATION_TYPE = U
NORAD_CAT_ID   = 26070
ELEMENT_SET_NO = 999
REV_AT_EPOCH   = 34371
BSTAR          = .81861E-4
MEAN_MOTION_DOT = .113E-5
MEAN_MOTION_DDOT = 0

CCSDS_OMM_VERS = 2.0
CREATION_DATE  = 
ORIGINATOR     = 

OBJECT_NAME    = TITAN 4B R/B
OBJECT_ID      = 2000-047B
CENTER_NAME    = EARTH
REF_FRAME      = TEME
TIME_SYSTEM    = UTC
MEAN_ELEMENT_THEORY = SGP/SGP4

EPOCH          = 2026-02-03T12:05:36.852000
MEAN_MOTION    = 15.09270768
ECCENTRICITY   = .0036771
INCLINATION    = 67.9899
RA_OF_ASC_NODE = 136.6179
ARG_OF_PERICENTER = 77.7718
MEAN_ANOMALY   = 282.7545

EPHEMERIS_TYPE = 0
CLASSIFICATION_TYPE = U
NORAD_CAT_ID   = 26474
ELEMENT_SET_NO = 999
REV_AT_EPOCH   = 38775
BSTAR          = .25369E-3
MEAN_MOTION_DOT = .3979E-4
MEAN_MOTION_DDOT = 0

CCSDS_OMM_VERS = 2.0
CREATION_DATE  = 
ORIGINATOR     = 

OBJECT_NAME    = ENVISAT
OBJECT_ID      = 2002-009A
CENTER_NAME    = EARTH
REF_FRAME      = TEME
TIME_SYSTEM    = UTC
MEAN_ELEMENT_THEORY = SGP/SGP4

EPOCH          = 2026-02-03T11:32:59.923104
MEAN_MOTION    = 14.39023373
ECCENTRICITY   = .0001296
INCLINATION    = 98.3672
RA_OF_ASC_NODE = 348.9058
ARG_OF_PERICENTER = 91.1874
MEAN_ANOMALY   = 17.6115

EPHEMERIS_TYPE = 0
CLASSIFICATION_TYPE = U
NORAD_CAT_ID   = 27386
ELEMENT_SET_NO = 999
REV_AT_EPOCH   = 25425
BSTAR          = .5842E-4
MEAN_MOTION_DOT = .138E-5
MEAN_MOTION_DDOT = 0

