SL-16 R/B               
1 25400U 98043G   26034.49176973  .00000072  00000+0  48852-4 0  9995
2 25400  98.8199 347.6253 0010850 111.2668 248.9671 14.26041088434110
SL-16 R/B               
1 25407U 98045B   26034.03356020 -.00000226  00000+0 -90243-4 0  9991
2 25407  71.0092 254.4555 0005143  73.1572 287.0115 14.16185928422194
ISS (ZARYA)             
1 25544U 98067A   26034.04958913  .00010203  00000+0  19716-3 0  9996
2 25544  51.6308 243.5963 0011047  59.0686 301.1387 15.48354885550963
CZ-4B R/B               
1 25732U 99025C   26034.36901047  .00000081  00000+0  59775-4 0  9994
2 25732  98.6692  79.4529 0038199  83.9751 287.0325 14.18258232383300
OKEAN-O                 
1 25860U 99039A   26034.17866875  .00000763  00000+0  10705-3 0  9995
2 25860  97.9516  94.4080 0001939  91.1271 269.0163 14.80275814429280
SL-16 R/B               
1 25861U 99039B   26034.39377364  .00000670  00000+0  91839-4 0  9995
2 25861  98.0039  93.5283 0015062  14.0690 346.0939 14.81680856431781
DELTA 2 R/B             
1 25876U 99041E   26034.46077052  .00002259  00000+0  40072-3 0  9990
2 25876  51.7645  77.9663 0502520 247.2989 107.4087 14.11691942358192
HELIOS 1B               
1 25977U 99064A   26034.47737423  .00002144  00000+0  24264-3 0  9991
2 25977  98.1734 295.7102 0001814 122.0494 238.0898 14.87550753680171
TERRA                   
1 25994U 99068A   26034.48046036  .00000492  00000+0  10948-3 0  9996
2 25994  97.9665  89.2094 0001054 309.8318 158.2156 14.60975633390089
SL-16 R/B               
1 26070U 00006B   26034.46386634  .00000113  00000+0  81861-4 0  9998
2 26070  71.0026 169.7999 0018478 237.9655 121.9673 14.15819918343712
TITAN 4B R/B            
1 26474U 00047B   26034.50389875  .00003979  00000+0  25369-3 0  9999
2 26474  67.9899 136.6179 0036771  77.7718 282.7545 15.09270768387755
ENVISAT                 
1 27386U 02009A   26034.48124911  .00000138  00000+0  58420-4 0  9996
2 27386  98.3672 348.9058 0001296  91.1874  17.6115 14.39023373254252
